NORAD_CAT_ID,OBJECT_NAME,OBJECT_TYPE,EPOCH,MEAN_MOTION,ECCENTRICITY,INCLINATION,RA_OF_ASC_NODE,ARG_OF_PERICENTER,MEAN_ANOMALY,BSTAR,MEAN_MOTION_DOT,MEAN_MOTION_DDOT,TLE_LINE0,TLE_LINE1,TLE_LINE2,SEMIMAJOR_AXIS,PERIOD,APOGEE,PERIGEE,DECAYED
53541.0,STARLINK-4485,PAYLOAD,2023-01-01 01:51:47,15.08842544,0.0002339,53.2192,257.7792,31.1855,328.9275,-8.5224e-05,-1.645e-05,0.0,0 STARLINK-4485,1 53541U 22101Q   23001.07763533 -.00001645  00000-0 -85224-4 0  9997,2 53541  53.2192 257.7792 0002339  31.1855 328.9275 15.08842544 20505,6917.873000000001,95.437,541.356,538.12,0.0
53541.0,STARLINK-4485,PAYLOAD,2023-01-01 09:48:43,15.08833399,0.0002333,53.2199,256.2922,31.7694,328.3438,-0.00025925,-4.411e-05,0.0,0 STARLINK-4485,1 53541U 22101Q   23001.40883933 -.00004411  00000-0 -25925-3 0  9996,2 53541  53.2199 256.2922 0002333  31.7694 328.3438 15.08833399 20550,6917.901,95.438,541.38,538.1519999999998,0.0
53541.0,STARLINK-4485,PAYLOAD,2023-01-01 17:45:39,15.08821555,0.0002264,53.2197,254.8063,36.6607,323.4539,-0.00046883,-7.738e-05,0.0,0 STARLINK-4485,1 53541U 22101Q   23001.74004491 -.00007738  00000-0 -46883-3 0  9998,2 53541  53.2197 254.8063 0002264  36.6607 323.4539 15.08821555 21290,6917.937,95.439,541.368,538.236,0.0
53541.0,STARLINK-4485,PAYLOAD,2023-01-02 01:42:36,15.08826311,0.000246,53.2185,253.319,40.6065,319.511,-0.00028815,-4.870000000000001e-05,0.0,0 STARLINK-4485,1 53541U 22101Q   23002.07125078 -.00004870  00000-0 -28815-3 0  9999,2 53541  53.2185 253.3190 0002460  40.6065 319.5110 15.08826311 20658,6917.922,95.438,541.489,538.085,0.0
53541.0,STARLINK-4485,PAYLOAD,2023-01-02 09:39:31,15.0883337,0.0002319,53.2202,251.8329,41.1428,318.9739,-0.0001422,-2.55e-05,0.0,0 STARLINK-4485,1 53541U 22101Q   23002.40244901 -.00002550  00000-0 -14220-3 0  9991,2 53541  53.2202 251.8329 0002319  41.1428 318.9739 15.08833370 20706,6917.901,95.438,541.37,538.161,0.0
53541.0,STARLINK-4485,PAYLOAD,2023-01-02 22:22:36,15.08836711,0.000226,53.2193,249.4537,38.9664,321.1491,0.00027841,4.145e-05,0.0,0 STARLINK-4485,1 53541U 22101Q   23002.93237184  .00004145  00000-0  27841-3 0  9997,2 53541  53.2193 249.4537 0002260  38.9664 321.1491 15.08836711 21478,6917.89,95.438,541.319,538.192,0.0
53541.0,STARLINK-4485,PAYLOAD,2023-01-03 11:05:42,15.08850403,0.0002209,53.2183,247.0748,38.329,321.7859,0.00069639,0.00010816,0.0,0 STARLINK-4485,1 53541U 22101Q   23003.46229175  .00010816  00000-0  69639-3 0  9990,2 53541  53.2183 247.0748 0002209  38.3290 321.7859 15.08850403 20867,6917.849,95.437,541.242,538.185,0.0
53541.0,STARLINK-4485,PAYLOAD,2023-01-03 19:02:37,15.0884384,0.0002238,53.2179,245.5879,39.026,321.0894,0.00028272,4.215e-05,0.0,0 STARLINK-4485,1 53541U 22101Q   23003.79349324  .00004215  00000-0  28272-3 0  9999,2 53541  53.2179 245.5879 0002238  39.0260 321.0894 15.08843840 20912,6917.869000000002,95.437,541.2819999999998,538.185,0.0
53541.0,STARLINK-4485,PAYLOAD,2023-01-04 09:21:05,15.08860285,0.0002195,53.2176,242.9119,39.0021,321.1129,0.00055377,8.541e-05,0.0,0 STARLINK-4485,1 53541U 22101Q   23004.38964583  .00008541  00000-0  55377-3 0  9997,2 53541  53.2176 242.9119 0002195  39.0021 321.1129 15.08860285 21694,6917.818,95.436,541.202,538.165,0.0
53541.0,STARLINK-4485,PAYLOAD,2023-01-04 22:04:10,15.08854495,0.0002210999999999,53.2177,240.5329,40.9924,319.1234,0.00029628,4.432e-05,0.0,0 STARLINK-4485,1 53541U 22101Q   23004.91956315  .00004432  00000-0  29628-3 0  9995,2 53541  53.2177 240.5329 0002211  40.9924 319.1234 15.08854495 21087,6917.8359999999975,95.437,541.231,538.172,0.0
53541.0,STARLINK-4485,PAYLOAD,2023-01-05 01:14:56,15.08857552,0.0002269,53.2174,239.9379,41.4474,318.6690000000001,0.00030222,4.527e-05,0.0,0 STARLINK-4485,1 53541U 22101Q   23005.05204113  .00004527  00000-0  30222-3 0  9990,2 53541  53.2174 239.9379 0002269  41.4474 318.6690 15.08857552 21795,6917.8269999999975,95.436,541.261,538.122,0.0
53541.0,STARLINK-4485,PAYLOAD,2023-01-06 12:13:25,15.08825517,0.0002232,53.2167,233.3959,41.2392,318.8769,-0.00041362,-6.863e-05,0.0,0 STARLINK-4485,1 53541U 22101Q   23006.50932244 -.00006863  00000-0 -41362-3 0  9998,2 53541  53.2167 233.3959 0002232  41.2392 318.8769 15.08825517 21320,6917.925,95.438,541.3340000000002,538.246,0.0
53541.0,STARLINK-4485,PAYLOAD,2023-01-06 18:34:58,15.08822555,0.0002233,53.2176,232.2079,37.9456,322.1693,-0.00033777,-5.657e-05,0.0,0 STARLINK-4485,1 53541U 22101Q   23006.77428670 -.00005657  00000-0 -33777-3 0  9991,2 53541  53.2176 232.2079 0002233  37.9456 322.1693 15.08822555 22059,6917.934,95.439,541.3430000000002,538.254,0.0
53541.0,STARLINK-4485,PAYLOAD,2023-01-07 00:56:31,15.08827523,0.0002353,53.2175,231.0185,35.6598,324.4551,-0.00021306,-3.677e-05,0.0,0 STARLINK-4485,1 53541U 22101Q   23007.03925043 -.00003677  00000-0 -21306-3 0  9992,2 53541  53.2175 231.0185 0002353  35.6598 324.4551 15.08827523 22090,6917.919,95.438,541.411,538.156,0.0
53541.0,STARLINK-4485,PAYLOAD,2023-01-07 10:28:50,15.08830201,0.0002188,53.2176,229.2342,35.1114,325.0022,-7.5659e-05,-1.492e-05,0.0,0 STARLINK-4485,1 53541U 22101Q   23007.43669180 -.00001492  00000-0 -75659-4 0  9997,2 53541  53.2176 229.2342 0002188  35.1114 325.0022 15.08830201 21467,6917.91,95.438,541.289,538.262,0.0
53541.0,STARLINK-4485,PAYLOAD,2023-01-07 21:36:32,15.08831193,0.0002267,53.2173,227.1526,37.1681,322.9468,0.00026242,3.89e-05,0.0,0 STARLINK-4485,1 53541U 22101Q   23007.90037681  .00003890  00000-0  26242-3 0  9999,2 53541  53.2173 227.1526 0002267  37.1681 322.9468 15.08831193 22220,6917.906999999998,95.438,541.341,538.2040000000002,0.0
53541.0,STARLINK-4485,PAYLOAD,2023-01-08 13:30:24,15.08840723,0.0002304,53.2172,224.1792,38.2412,321.8743,0.0004364,6.664e-05,0.0,0 STARLINK-4485,1 53541U 22101Q   23008.56277803  .00006664  00000-0  43640-3 0  9997,2 53541  53.2172 224.1792 0002304  38.2412 321.8743 15.08840723 21634,6917.8780000000015,95.438,541.337,538.149,0.0
53541.0,STARLINK-4485,PAYLOAD,2023-01-08 21:27:19,15.0885392,0.0002311,53.217,222.6925,38.9037,321.2121,0.0005984,9.252e-05,0.0,0 STARLINK-4485,1 53541U 22101Q   23008.89397448  .00009252  00000-0  59840-3 0  9996,2 53541  53.2170 222.6925 0002311  38.9037 321.2121 15.08853920 22370,6917.838000000002,95.437,541.302,538.104,0.0
53541.0,STARLINK-4485,PAYLOAD,2023-01-09 00:38:05,15.08858946,0.0002318,53.2168,222.0978,38.8106,321.3052,0.00066432,0.00010306,0.0,0 STARLINK-4485,1 53541U 22101Q   23009.02645272  .00010306  00000-0  66432-3 0  9990,2 53541  53.2168 222.0978 0002318  38.8106 321.3052 15.08858946 21705,6917.821999999999,95.436,541.2909999999998,538.0840000000002,0.0
53541.0,STARLINK-4485,PAYLOAD,2023-01-09 06:59:38,15.08840577,0.0002279,53.2168,220.9086,39.2054,320.9103,-8.055100000000001e-05,-1.57e-05,0.0,0 STARLINK-4485,1 53541U 22101Q   23009.29141542 -.00001570  00000-0 -80551-4 0  9994,2 53541  53.2168 220.9086 0002279  39.2054 320.9103 15.08840577 22439,6917.879,95.438,541.32,538.1669999999998,0.0
53541.0,STARLINK-4485,PAYLOAD,2023-01-10 06:50:25,15.08852455,0.0002501,53.2172,216.4481,42.7176,317.401,0.00030496,4.57e-05,0.0,0 STARLINK-4485,1 53541U 22101Q   23010.28501200  .00004570  00000-0  30496-3 0  9999,2 53541  53.2172 216.4481 0002501  42.7176 317.4010 15.08852455 21890,6917.842,95.437,541.437,537.977,0.0
53541.0,STARLINK-4485,PAYLOAD,2023-01-10 19:33:30,15.08855329,0.0003264,53.2165,214.0693,53.1077,307.0213,0.00036217,5.483e-05,0.0,0 STARLINK-4485,1 53541U 22101Q   23010.81493243  .00005483  00000-0  36217-3 0  9996,2 53541  53.2165 214.0693 0003264  53.1077 307.0213 15.08855329 22663,6917.834,95.437,541.957,537.441,0.0
53541.0,STARLINK-4485,PAYLOAD,2023-01-10 22:44:16,15.08841952,0.0002482,53.2203,213.4771,41.232,318.8859,0.00013231,1.818e-05,0.0,0 STARLINK-4485,1 53541U 22101Q   23010.94741495  .00001818  00000-0  13231-3 0  9994,2 53541  53.2203 213.4771 0002482  41.2320 318.8859 15.08841952 21994,6917.874,95.437,541.456,538.0219999999998,0.0
53541.0,STARLINK-4485,PAYLOAD,2023-01-11 13:02:44,15.08848532,0.0002356,53.2179,210.798,40.7467,319.3701,0.00023949,3.526e-05,0.0,0 STARLINK-4485,1 53541U 22101Q   23011.54357198  .00003526  00000-0  23949-3 0  9999,2 53541  53.2179 210.7980 0002356  40.7467 319.3701 15.08848532 22774,6917.854,95.437,541.349,538.089,0.0
53541.0,STARLINK-4485,PAYLOAD,2023-01-11 19:24:17,15.08850412,0.0002352,53.2179,209.6087,39.5142,320.6022,0.00025146,3.717e-05,0.0,0 STARLINK-4485,1 53541U 22101Q   23011.80853041  .00003717  00000-0  25146-3 0  9999,2 53541  53.2179 209.6087 0002352  39.5142 320.6022 15.08850412 22817,6917.849,95.437,541.341,538.086,0.0
53541.0,STARLINK-4485,PAYLOAD,2023-01-12 19:15:04,15.08844376,0.0002341,53.2182,205.1483,41.9022,318.2149,0.00014565,2.031e-05,0.0,0 STARLINK-4485,1 53541U 22101Q   23012.80213120  .00002031  00000-0  14565-3 0  9999,2 53541  53.2182 205.1483 0002341  41.9022 318.2149 15.08844376 22279,6917.866999999998,95.437,541.351,538.113,0.0
53541.0,STARLINK-4485,PAYLOAD,2023-01-12 22:25:50,15.0884756,0.0002388,53.2182,204.5539,41.1401,318.9770000000001,0.0001984,2.871e-05,0.0,0 STARLINK-4485,1 53541U 22101Q   23012.93461027  .00002871  00000-0  19840-3 0  9997,2 53541  53.2182 204.5539 0002388  41.1401 318.9770 15.08847560 22981,6917.857,95.437,541.374,538.07,0.0
53541.0,STARLINK-4485,PAYLOAD,2023-01-13 11:08:55,15.088387099999998,0.0002557,53.2171,202.1741,45.9398,314.1804,2.4562e-05,1.02e-06,0.0,0 STARLINK-4485,1 53541U 22101Q   23013.46453435  .00000102  00000-0  24562-4 0  9993,2 53541  53.2171 202.1741 0002557  45.9398 314.1804 15.08838710 22379,6917.884,95.438,541.518,537.98,0.0
53541.0,STARLINK-4485,PAYLOAD,2023-01-13 22:16:37,15.0883685,0.0002383,53.2173,200.0925,39.4175,320.699,-2.9694e-05,-7.61e-06,0.0,0 STARLINK-4485,1 53541U 22101Q   23013.92821729 -.00000761  00000-0 -29694-4 0  9993,2 53541  53.2173 200.0925 0002383  39.4175 320.6990 15.08836850 23136,6917.89,95.438,541.404,538.106,0.0
